#aV2022 10 10  0  0  0.00000000     288 DD+AD WGS84 FIT  NGA
## 2231  86400.00000000   300.00000000 59862 0.0000000000000
+   32     1  2  3  4  5  6  7  8  9 10 11 12 13 14 15 16 17
+         18 19 20 21 22 23 24 25 26 27 28 29 30 31 32  0  0
+          0  0  0  0  0  0  0  0  0  0  0  0  0  0  0  0  0
+          0  0  0  0  0  0  0  0  0  0  0  0  0  0  0  0  0
+          0  0  0  0  0  0  0  0  0  0  0  0  0  0  0  0  0
++         2  2  2  2  2  2  2  2  2  2  2  2  2  2  2  2  2
++         2  2  2  2  2  2  2  2  2  2  2  2  2  2  2  0  0
++         0  0  0  0  0  0  0  0  0  0  0  0  0  0  0  0  0
++         0  0  0  0  0  0  0  0  0  0  0  0  0  0  0  0  0
++         0  0  0  0  0  0  0  0  0  0  0  0  0  0  0  0  0
%c cc cc ccc ccc cccc cccc cccc cccc ccccc ccccc ccccc ccccc
%c cc cc ccc ccc cccc cccc cccc cccc ccccc ccccc ccccc ccccc
%f  0.0000000  0.000000000  0.00000000000  0.000000000000000
%f  0.0000000  0.000000000  0.00000000000  0.000000000000000
%i    0    0    0    0      0      0      0      0         0
%i    0    0    0    0      0      0      0      0         0
/*      NGA, ST. LOUIS,MO.                                  
/*   EPHEMERIS COMPUTED FROM 2 DAYS OF DATA                 
/*   EPOCHA v8 SMOOTHER                                     
/*   G2139 IERS2010 SATIGS SATAPC                           
*  2022 10 10  4 15  0.00000000
P  1  13908.493229 -22404.310897     18.854260    270.013748                    
V  1   1664.686505   1503.747476  32599.738674     -0.061672                    
P  2 -13888.903719  22360.784816  -3610.619682   -642.962224                    
V  2    133.246771  -5899.095628 -31338.267173      0.015164                    
P  3  15357.568018 -12015.175758 -18109.853927   -362.703940                    
V  3  22720.528367   1748.661130  18335.989367     -0.044416                    
P  4   5277.557909 -18175.463372 -18592.401621   -105.993289                    
V  4  12097.584272  20371.955300 -16576.244897      0.060137                    
P  5 -24132.477029   6773.920514   8790.110793    -99.808548                    
V  5 -11433.257125  -2174.284388 -29009.713061     -0.014522                    
P  6 -12769.140695  -7057.495208 -22131.562747    486.733583                    
V  6  14639.300514 -24073.049024   -696.543926      0.111551                    
P  7   2356.540889 -22671.574754  13630.016326    300.201674                    
V  7  10995.260555 -13025.934855 -24806.533401     -0.036927                    
P  8  12265.679476  -9020.010151  21705.853817    -88.172009                    
V  8  14277.590545  23712.044940   2136.485878     -0.016930                    
P  9  -5177.585498 -23810.451275 -10599.224882   -285.258212                    
V  9   9004.497504  10226.405660 -27615.684013      0.051291                    
P 10  17453.789977  11553.808855  16684.713114     -6.859694                    
V 10 -20759.061492   1027.303842  20894.088828     -0.016022                    
P 11 -18429.399274   4199.312231 -18641.897462    -24.178029                    
V 11  12054.744019 -20431.111027 -16553.472247     -0.041530                    
P 12 -16298.652500  11051.340208 -18041.558236   -290.459269                    
V 12 -22182.273961  -3426.735176  18310.098083     -0.043970                    
P 13 -15735.509385   -210.601963  21252.756542    403.221230                    
V 13  -9424.120037 -25658.923363  -6993.792623      0.070709                    
P 14 -15185.667416 -13221.588297  17385.845411    -96.546321                    
V 14  22111.218846   -643.843965  18720.027935      0.036913                    
P 15 -11418.902898  10792.291134  20958.417265    -22.163307                    
V 15 -16921.024100 -22043.641861   2378.764842      0.031403                    
P 16  26561.368933    514.291639   3327.776400   -525.968684                    
V 16   4249.460898   2689.098607 -31230.430188     -0.006225                    
P 17 -12770.169887 -23075.466251  -2386.261562    667.281321                    
V 17    611.705594  -4244.765401  31967.015205      0.036488                    
P 18  -2168.466055  22073.950706  14502.544430     20.016848                    
V 18 -11421.794131  14619.933019 -24088.612226     -0.132702                    
P 19 -16537.875562 -16615.614579 -12964.483246    221.783253                    
V 19  -4691.964423 -15337.795314  25873.005541      0.050593                    
P 20 -25969.518788    191.849088  -4937.772515    479.624032                    
V 20   5774.206183  -4314.949649 -30701.503092     -0.030892                    
P 21  16724.051755 -17676.651150  10295.687836    158.260481                    
V 21  -2892.659023  12447.066013  28447.300808     -0.006007                    
P 22  17206.113841  14227.204704 -14101.361114    342.922204                    
V 22   5694.961396  17785.980757  24005.618619      0.069368                    
P 23   6436.083077  14514.501661  21302.236208     -0.886161                    
V 23 -27012.001009    859.795094   7443.119952     -0.002755                    
P 24 -14415.760490  21464.872568   4671.268797    105.566693                    
V 24   -712.868944  -7517.392907  30668.265688     -0.142616                    
P 25  -3587.516315  15305.585261 -21673.245357    380.808131                    
V 25 -26882.490711   -703.841141   4278.284613      0.039391                    
P 26  25443.439720   4153.130407  -7142.873700    231.878353                    
V 26  -8762.534159   3503.171985 -29219.443692      0.014235                    
P 27  17488.577286   3942.632056  19510.469583    200.441892                    
V 27  11363.865768  22393.332062 -14163.463984     -0.059879                    
P 28 -21902.459263 -10207.729870  11238.006976    330.838234                    
V 28  13765.032668   -832.355349  27541.242025     -0.044076                    
P 29   2312.229821  23743.019789 -11631.677806   -558.430941                    
V 29  -7909.236799 -12548.432435 -27365.532587     -0.030269                    
P 30  -7196.411847 -16139.898235  19848.574517   -537.227463                    
V 30  14479.220711 -20634.663101 -11836.276088     -0.000018                    
P 31  14296.920088   6108.234528 -21707.102073   -196.264192                    
V 31 -14482.982159  23031.189410  -2622.807372     -0.013001                    
P 32  15896.772703  20739.823086  -5159.781162   -258.638253                    
V 32    981.348427   7149.530142  30676.306380     -0.118268                    
EOF
